[{"OBJECT_NAME":"NOAA 17","OBJECT_ID":"2002-032A","EPOCH":"2026-03-14T22:30:01.608768","MEAN_MOTION":14.26192776,"ECCENTRICITY":0.00105487,"INCLINATION":98.8549,"RA_OF_ASC_NODE":38.6229,"ARG_OF_PERICENTER":264.9803,"MEAN_ANOMALY":95.0172,"EPHEMERIS_TYPE":0,"CLASSIFICATION_TYPE":"U","NORAD_CAT_ID":27453,"ELEMENT_SET_NO":999,"REV_AT_EPOCH":23355,"BSTAR":0.00011941343,"MEAN_MOTION_DOT":2.4e-6,"MEAN_MOTION_DDOT":0},{"OBJECT_NAME":"NOAA 18","OBJECT_ID":"2005-018A","EPOCH":"2026-03-14T22:05:50.936352","MEAN_MOTION":14.1371183,"ECCENTRICITY":0.00151555,"INCLINATION":98.8149,"RA_OF_ASC_NODE":154.9546,"ARG_OF_PERICENTER":61.5917,"MEAN_ANOMALY":298.6781,"EPHEMERIS_TYPE":0,"CLASSIFICATION_TYPE":"U","NORAD_CAT_ID":28654,"ELEMENT_SET_NO":999,"REV_AT_EPOCH":7299,"BSTAR":4.2930272e-5,"MEAN_MOTION_DOT":3.7e-7,"MEAN_MOTION_DDOT":0},{"OBJECT_NAME":"NOAA 19","OBJECT_ID":"2009-005A","EPOCH":"2026-03-14T21:40:05.458080","MEAN_MOTION":14.13457729,"ECCENTRICITY":0.0012748,"INCLINATION":98.9597,"RA_OF_ASC_NODE":144.6825,"ARG_OF_PERICENTER":298.8825,"MEAN_ANOMALY":61.1068,"EPHEMERIS_TYPE":0,"CLASSIFICATION_TYPE":"U","NORAD_CAT_ID":33591,"ELEMENT_SET_NO":999,"REV_AT_EPOCH":88116,"BSTAR":4.3562508e-5,"MEAN_MOTION_DOT":3.7e-7,"MEAN_MOTION_DDOT":0},{"OBJECT_NAME":"SUOMI NPP","OBJECT_ID":"2011-061A","EPOCH":"2026-03-14T21:19:36.992640","MEAN_MOTION":14.19545256,"ECCENTRICITY":7.003e-5,"INCLINATION":98.7875,"RA_OF_ASC_NODE":15.4502,"ARG_OF_PERICENTER":196.5056,"MEAN_ANOMALY":163.6097,"EPHEMERIS_TYPE":0,"CLASSIFICATION_TYPE":"U","NORAD_CAT_ID":37849,"ELEMENT_SET_NO":999,"REV_AT_EPOCH":74506,"BSTAR":6.9969651e-5,"MEAN_MOTION_DOT":1.03e-6,"MEAN_MOTION_DDOT":0},{"OBJECT_NAME":"NOAA 20 (JPSS-1)","OBJECT_ID":"2017-073A","EPOCH":"2026-03-14T21:40:47.324928","MEAN_MOTION":14.19537606,"ECCENTRICITY":0.00014293,"INCLINATION":98.7697,"RA_OF_ASC_NODE":14.2387,"ARG_OF_PERICENTER":130.7827,"MEAN_ANOMALY":229.3474,"EPHEMERIS_TYPE":0,"CLASSIFICATION_TYPE":"U","NORAD_CAT_ID":43013,"ELEMENT_SET_NO":999,"REV_AT_EPOCH":43109,"BSTAR":6.0629684e-5,"MEAN_MOTION_DOT":8.4e-7,"MEAN_MOTION_DDOT":0},{"OBJECT_NAME":"NOAA 21 (JPSS-2)","OBJECT_ID":"2022-150A","EPOCH":"2026-03-14T22:30:41.018400","MEAN_MOTION":14.19553774,"ECCENTRICITY":0.00027516,"INCLINATION":98.7559,"RA_OF_ASC_NODE":14.1438,"ARG_OF_PERICENTER":97.3078,"MEAN_ANOMALY":262.8411,"EPHEMERIS_TYPE":0,"CLASSIFICATION_TYPE":"U","NORAD_CAT_ID":54234,"ELEMENT_SET_NO":999,"REV_AT_EPOCH":17317,"BSTAR":6.5422444e-5,"MEAN_MOTION_DOT":9.4e-7,"MEAN_MOTION_DDOT":0}]
