NOAA 17                 
1 27453U 02032A   26073.93751862  .00000240  00000+0  11941-3 0  9991
2 27453  98.8549  38.6229 0010548 264.9803  95.0172 14.26192776233553
NOAA 18                 
1 28654U 05018A   26073.92072843  .00000037  00000+0  42930-4 0  9993
2 28654  98.8149 154.9546 0015155  61.5917 298.6781 14.13711830 72993
NOAA 19                 
1 33591U 09005A   26073.90284095  .00000037  00000+0  43563-4 0  9994
2 33591  98.9597 144.6825 0012748 298.8825  61.1068 14.13457729881163
SUOMI NPP               
1 37849U 11061A   26073.88862260  .00000103  00000+0  69970-4 0  9996
2 37849  98.7875  15.4502 0000700 196.5056 163.6097 14.19545256745069
NOAA 20 (JPSS-1)        
1 43013U 17073A   26073.90332552  .00000084  00000+0  60630-4 0  9996
2 43013  98.7697  14.2387 0001429 130.7827 229.3474 14.19537606431098
NOAA 21 (JPSS-2)        
1 54234U 22150A   26073.93797475  .00000094  00000+0  65422-4 0  9992
2 54234  98.7559  14.1438 0002751  97.3078 262.8411 14.19553774173172
